{
    "links": {
        "self": "http://www.neowsapp.com/rest/v1/neo/3840869?api_key=iIulBulltgU6a56xZRHN4H3l9WmuAYTsLGpBGhQ2"
    },
    "id": "3840869",
    "neo_reference_id": "3840869",
    "name": "(2019 GK4)",
    "designation": "2019 GK4",
    "nasa_jpl_url": "http://ssd.jpl.nasa.gov/sbdb.cgi?sstr=3840869",
    "absolute_magnitude_h": 23.8,
    "estimated_diameter": {
        "kilometers": {
            "estimated_diameter_min": 0.046190746,
            "estimated_diameter_max": 0.1032856481
        },
        "meters": {
            "estimated_diameter_min": 46.1907460282,
            "estimated_diameter_max": 103.2856480504
        },
        "miles": {
            "estimated_diameter_min": 0.0287015901,
            "estimated_diameter_max": 0.0641787064
        },
        "feet": {
            "estimated_diameter_min": 151.544447199,
            "estimated_diameter_max": 338.8636855496
        }
    },
    "is_potentially_hazardous_asteroid": false,
    "close_approach_data": [
        {
            "close_approach_date": "2019-04-10",
            "close_approach_date_full": "2019-Apr-10 00:07",
            "epoch_date_close_approach": 1554854820000,
            "relative_velocity": {
                "kilometers_per_second": "14.9945122017",
                "kilometers_per_hour": "53980.2439261452",
                "miles_per_hour": "33541.2243439984"
            },
            "miss_distance": {
                "astronomical": "0.0895171037",
                "lunar": "34.8221533393",
                "kilometers": "13391568.042089119",
                "miles": "8321134.5252190822"
            },
            "orbiting_body": "Earth"
        }
    ],
    "orbital_data": {
        "orbit_id": "2",
        "orbit_determination_date": "2019-04-13 07:35:17",
        "first_observation_date": "2019-04-07",
        "last_observation_date": "2019-04-13",
        "data_arc_in_days": 6,
        "observations_used": 27,
        "orbit_uncertainty": "9",
        "minimum_orbit_intersection": ".0753639",
        "jupiter_tisserand_invariant": "4.607",
        "epoch_osculation": "2458581.5",
        "eccentricity": ".4162546411208088",
        "semi_major_axis": "1.395743201308846",
        "inclination": "21.08910122674828",
        "ascending_node_longitude": "189.5307799784929",
        "orbital_period": "602.2914644415256",
        "perihelion_distance": ".8147586159512238",
        "perihelion_argument": "85.20255841125849",
        "aphelion_distance": "1.976727786666469",
        "perihelion_time": "2458642.034355384159",
        "mean_anomaly": "323.8175713506015",
        "mean_motion": ".5977172536121026",
        "equinox": "J2000",
        "orbit_class": {
            "orbit_class_type": "APO",
            "orbit_class_description": "Near-Earth asteroid orbits which cross the Earth’s orbit similar to that of 1862 Apollo",
            "orbit_class_range": "a (semi-major axis) > 1.0 AU; q (perihelion) < 1.017 AU"
        }
    },
    "is_sentry_object": false
}